OBJECT_NAME,OBJECT_ID,EPOCH,MEAN_MOTION,ECCENTRICITY,INCLINATION,RA_OF_ASC_NODE,ARG_OF_PERICENTER,MEAN_ANOMALY,EPHEMERIS_TYPE,CLASSIFICATION_TYPE,NORAD_CAT_ID,ELEMENT_SET_NO,REV_AT_EPOCH,BSTAR,MEAN_MOTION_DOT,MEAN_MOTION_DDOT
SWARM A,2013-067B,2026-06-19T05:16:33.417408,15.50987388,.00030281,87.3319,55.4864,96.1316,264.0290,0,U,39452,999,70656,.14905264E-3,.8687E-4,0
SWARM C,2013-067C,2026-06-19T05:16:23.819232,15.50985621,.00030211,87.3318,54.0677,95.9630,264.1976,0,U,39453,999,70652,.14725652E-3,.8582E-4,0
BRITE-CA1 (TORONTO),2014-033L,2026-06-19T01:49:36.701472,14.72678989,.00772116,97.9743,298.9692,270.8542,88.3819,0,U,40020,999,64249,.93566608E-4,.57E-5,0
OCO 2,2014-035A,2026-06-19T06:49:18.112224,14.57112803,.00015006,98.2017,111.5454,84.7012,275.4357,0,U,40059,999,63635,.8301481E-4,.329E-5,0
BRITE-PL2 (HEWELIUSZ),2014-049B,2026-06-19T05:56:47.892192,14.94599939,.00153506,97.9100,282.2635,102.3466,257.9473,0,U,40119,999,64175,.15949859E-3,.167E-4,0
MMS 1,2015-011A,2026-06-19T08:00:01.999872,0.28346409,.83214746,72.1566,348.7675,167.4888,157.3831,0,U,40482,999,138,0,-.644E-5,0
MMS 2,2015-011B,2026-06-19T08:00:01.999872,0.28346426,.83222593,72.1567,348.7697,167.4944,157.3719,0,U,40483,999,138,0,-.644E-5,0
MMS 3,2015-011C,2026-06-19T08:00:01.999872,0.28346391,.83214398,72.1599,348.7742,167.4889,157.3671,0,U,40484,999,138,0,-.644E-5,0
MMS 4,2015-011D,2026-06-19T08:00:01.999872,0.28346385,.83210537,72.1559,348.7700,167.4967,157.3557,0,U,40485,999,138,0,-.644E-5,0
ASTROSAT,2015-052A,2026-06-19T05:51:42.336864,14.82510285,.00076466,5.9955,140.5370,62.3423,297.7480,0,U,40930,999,58013,.82955803E-4,.1352E-4,0
DAMPE,2015-078A,2026-06-19T06:14:39.700608,15.30790281,.00137771,97.4554,175.7375,70.5754,289.6975,0,U,41173,999,58486,.39870314E-4,.1111E-4,0
PISAT,2016-059B,2026-06-18T23:35:42.762048,14.68985886,.00285407,97.8178,170.3587,196.9067,163.1191,0,U,41784,999,52000,.11674294E-3,.641E-5,0
HXMT (HUIYAN),2017-034A,2026-06-19T07:19:14.795904,15.18487103,.00308554,43.0125,171.2479,160.8186,199.3831,0,U,42758,999,49798,.11612768E-3,.222E-4,0
FLYING LAPTOP,2017-042G,2026-06-19T07:38:43.872576,15.01156173,.00196509,97.4699,325.7687,114.7791,245.5481,0,U,42831,999,48677,.19330262E-3,.2429E-4,0
ZHANGHENG 1-01 (CSES-1),2018-015C,2026-06-19T07:26:45.547296,15.20833774,.00170917,97.6877,336.0094,258.4542,101.4774,0,U,43194,999,46496,.25224821E-3,.5514E-4,0
SALSAT,2020-068K,2026-06-18T23:26:50.722944,15.29820569,.000795,97.8853,173.1506,300.6759,59.3696,0,U,46495,999,31563,.2105E-3,.5999E-4,0
IXPE,2021-121A,2026-06-19T08:00:01.999872,15.10267560,.0007055,0.2302,301.7677,107.8109,27.2151,0,U,49954,999,589,.54184861E-3,.1007E-3,0
SMILE,2026-109A,2026-06-07T09:11:54.544416,7.54049028,.3310191,69.9787,209.3069,288.5544,45.7342,0,U,69123,999,248,-.36778157E-3,-.41E-6,0
