
ASTROSAT
1 40930U 15052A   26170.24424001  .00001352  00000+0  82956-4 0  9996
2 40930   5.9955 140.5370 0007646  62.3423 297.7480 14.82510285580134

BRITE-CA1 (TORONTO)
1 40020U 14033L   26170.07611923  .00000570  00000+0  93567-4 0  9997
2 40020  97.9743 298.9692 0077211 270.8542  88.3819 14.72678989642491

BRITE-PL2 (HEWELIUSZ)
1 40119U 14049B   26170.24777653  .00001670  00000+0  15950-3 0  9996
2 40119  97.9100 282.2635 0015350 102.3466 257.9473 14.94599939641759

DAMPE
1 41173U 15078A   26170.26018172  .00001111  00000+0  39870-4 0  9994
2 41173  97.4554 175.7375 0013777  70.5754 289.6975 15.30790281584863

FLYING LAPTOP
1 42831U 17042G   26170.31856334  .00002429  00000+0  19330-3 0  9996
2 42831  97.4699 325.7687 0019650 114.7791 245.5481 15.01156173486774

HXMT (HUIYAN)
1 42758U 17034A   26170.30503236  .00002220  00000+0  11613-3 0  9999
2 42758  43.0125 171.2479 0030855 160.8186 199.3831 15.18487103497984

IXPE
1 49954U 21121A   26170.33335648  .00010070  00000+0  54185-3 0  9992
2 49954   0.2302 301.7677 0007055 107.8109  27.2151 15.10267560  5897

MMS 1
1 40482U 15011A   26170.33335648 -.00000644  00000+0  00000+0 0  9990
2 40482  72.1566 348.7675 8321474 167.4888 157.3831  0.28346409  1384

MMS 2
1 40483U 15011B   26170.33335648 -.00000644  00000+0  00000+0 0  9991
2 40483  72.1567 348.7697 8322259 167.4944 157.3719  0.28346426  1389

MMS 3
1 40484U 15011C   26170.33335648 -.00000644  00000+0  00000+0 0  9992
2 40484  72.1599 348.7742 8321439 167.4889 157.3671  0.28346391  1381

MMS 4
1 40485U 15011D   26170.33335648 -.00000644  00000+0  00000+0 0  9993
2 40485  72.1559 348.7700 8321053 167.4967 157.3557  0.28346385  1387

OCO 2
1 40059U 14035A   26170.28423741  .00000329  00000+0  83015-4 0  9992
2 40059  98.2017 111.5454 0001500  84.7012 275.4357 14.57112803636354

PISAT
1 41784U 16059B   26169.98313382  .00000641  00000+0  11674-3 0  9998
2 41784  97.8178 170.3587 0028540 196.9067 163.1191 14.68985886520006

SALSAT
1 46495U 20068K   26169.97697596  .00005999  00000+0  21050-3 0  9998
2 46495  97.8853 173.1506 0007950 300.6759  59.3696 15.29820569315637

SMILE
1 69123U 26109A   26158.38327019 -.00000041  00000+0 -36778-3 0  9994
2 69123  69.9787 209.3069 3310191 288.5544  45.7342  7.54049028  2480

SWARM A
1 39452U 13067B   26170.21983122  .00008687  00000+0  14905-3 0  9994
2 39452  87.3319  55.4864 0003028  96.1316 264.0290 15.50987388706568

SWARM C
1 39453U 13067C   26170.21972013  .00008582  00000+0  14726-3 0  9997
2 39453  87.3318  54.0677 0003021  95.9630 264.1976 15.50985621706520

ZHANGHENG 1-01 (CSES-1)
1 43194U 18015C   26170.31024939  .00005514  00000+0  25225-3 0  9996
2 43194  97.6877 336.0094 0017091 258.4542 101.4774 15.20833774464963
